CCSDS_OMM_VERS = 2.0
CREATION_DATE  = 
ORIGINATOR     = 

OBJECT_NAME    = ATLAS CENTAUR 2
OBJECT_ID      = 1963-047A
CENTER_NAME    = EARTH
REF_FRAME      = TEME
TIME_SYSTEM    = UTC
MEAN_ELEMENT_THEORY = SGP/SGP4

EPOCH          = 2026-02-19T00:32:18.445344
MEAN_MOTION    = 14.12011870
ECCENTRICITY   = .05481504
INCLINATION    = 30.3576
RA_OF_ASC_NODE = 299.9633
ARG_OF_PERICENTER = 275.7842
MEAN_ANOMALY   = 78.0547

EPHEMERIS_TYPE = 0
CLASSIFICATION_TYPE = U
NORAD_CAT_ID   = 694
ELEMENT_SET_NO = 999
REV_AT_EPOCH   = 12898
BSTAR          = .13508917E-3
MEAN_MOTION_DOT = .1226E-4
MEAN_MOTION_DDOT = 0

CCSDS_OMM_VERS = 2.0
CREATION_DATE  = 
ORIGINATOR     = 

OBJECT_NAME    = THOR AGENA D R/B
OBJECT_ID      = 1964-002A
CENTER_NAME    = EARTH
REF_FRAME      = TEME
TIME_SYSTEM    = UTC
MEAN_ELEMENT_THEORY = SGP/SGP4

EPOCH          = 2026-02-19T00:46:18.268896
MEAN_MOTION    = 14.34008096
ECCENTRICITY   = .00321894
INCLINATION    = 99.1230
RA_OF_ASC_NODE = 62.3531
ARG_OF_PERICENTER = 314.0936
MEAN_ANOMALY   = 45.7598

EPHEMERIS_TYPE = 0
CLASSIFICATION_TYPE = U
NORAD_CAT_ID   = 733
ELEMENT_SET_NO = 999
REV_AT_EPOCH   = 23562
BSTAR          = .87716509E-4
MEAN_MOTION_DOT = .197E-5
MEAN_MOTION_DDOT = 0

CCSDS_OMM_VERS = 2.0
CREATION_DATE  = 
ORIGINATOR     = 

OBJECT_NAME    = SL-3 R/B
OBJECT_ID      = 1964-053B
CENTER_NAME    = EARTH
REF_FRAME      = TEME
TIME_SYSTEM    = UTC
MEAN_ELEMENT_THEORY = SGP/SGP4

EPOCH          = 2026-02-19T06:47:30.622848
MEAN_MOTION    = 14.61347926
ECCENTRICITY   = .00789208
INCLINATION    = 65.0775
RA_OF_ASC_NODE = 25.1985
ARG_OF_PERICENTER = 298.0537
MEAN_ANOMALY   = 61.2597

EPHEMERIS_TYPE = 0
CLASSIFICATION_TYPE = U
NORAD_CAT_ID   = 877
ELEMENT_SET_NO = 999
REV_AT_EPOCH   = 26410
BSTAR          = .92089921E-4
MEAN_MOTION_DOT = .351E-5
MEAN_MOTION_DDOT = 0

CCSDS_OMM_VERS = 2.0
CREATION_DATE  = 
ORIGINATOR     = 

OBJECT_NAME    = SL-8 R/B
OBJECT_ID      = 1967-045B
CENTER_NAME    = EARTH
REF_FRAME      = TEME
TIME_SYSTEM    = UTC
MEAN_ELEMENT_THEORY = SGP/SGP4

EPOCH          = 2026-02-19T02:21:02.746080
MEAN_MOTION    = 14.45601968
ECCENTRICITY   = .00634517
INCLINATION    = 74.0116
RA_OF_ASC_NODE = 22.8071
ARG_OF_PERICENTER = 33.6157
MEAN_ANOMALY   = 326.9000

EPHEMERIS_TYPE = 0
CLASSIFICATION_TYPE = U
NORAD_CAT_ID   = 2802
ELEMENT_SET_NO = 999
REV_AT_EPOCH   = 8633
BSTAR          = .10491285E-3
MEAN_MOTION_DOT = .352E-5
MEAN_MOTION_DDOT = 0

CCSDS_OMM_VERS = 2.0
CREATION_DATE  = 
ORIGINATOR     = 

OBJECT_NAME    = SL-8 R/B
OBJECT_ID      = 1968-040B
CENTER_NAME    = EARTH
REF_FRAME      = TEME
TIME_SYSTEM    = UTC
MEAN_ELEMENT_THEORY = SGP/SGP4

EPOCH          = 2026-02-19T06:34:52.064544
MEAN_MOTION    = 15.03114824
ECCENTRICITY   = .00247013
INCLINATION    = 74.0336
RA_OF_ASC_NODE = 351.3155
ARG_OF_PERICENTER = 180.9104
MEAN_ANOMALY   = 179.2044

EPHEMERIS_TYPE = 0
CLASSIFICATION_TYPE = U
NORAD_CAT_ID   = 3230
ELEMENT_SET_NO = 999
REV_AT_EPOCH   = 8724
BSTAR          = .19788876E-3
MEAN_MOTION_DOT = .2646E-4
MEAN_MOTION_DDOT = 0

CCSDS_OMM_VERS = 2.0
CREATION_DATE  = 
ORIGINATOR     = 

OBJECT_NAME    = OAO 2
OBJECT_ID      = 1968-110A
CENTER_NAME    = EARTH
REF_FRAME      = TEME
TIME_SYSTEM    = UTC
MEAN_ELEMENT_THEORY = SGP/SGP4

EPOCH          = 2026-02-19T05:24:30.355776
MEAN_MOTION    = 14.47295747
ECCENTRICITY   = .00049969
INCLINATION    = 34.9948
RA_OF_ASC_NODE = 8.3119
ARG_OF_PERICENTER = 45.4557
MEAN_ANOMALY   = 314.6541

EPHEMERIS_TYPE = 0
CLASSIFICATION_TYPE = U
NORAD_CAT_ID   = 3597
ELEMENT_SET_NO = 999
REV_AT_EPOCH   = 1642
BSTAR          = .68783692E-4
MEAN_MOTION_DOT = .236E-5
MEAN_MOTION_DDOT = 0

CCSDS_OMM_VERS = 2.0
CREATION_DATE  = 
ORIGINATOR     = 

OBJECT_NAME    = ISIS 1
OBJECT_ID      = 1969-009A
CENTER_NAME    = EARTH
REF_FRAME      = TEME
TIME_SYSTEM    = UTC
MEAN_ELEMENT_THEORY = SGP/SGP4

EPOCH          = 2026-02-19T05:18:37.979424
MEAN_MOTION    = 11.30407391
ECCENTRICITY   = .1707837
INCLINATION    = 88.4554
RA_OF_ASC_NODE = 157.3208
ARG_OF_PERICENTER = 126.4235
MEAN_ANOMALY   = 250.6748

EPHEMERIS_TYPE = 0
CLASSIFICATION_TYPE = U
NORAD_CAT_ID   = 3669
ELEMENT_SET_NO = 999
REV_AT_EPOCH   = 34644
BSTAR          = .12004558E-3
MEAN_MOTION_DOT = .191E-5
MEAN_MOTION_DDOT = 0

CCSDS_OMM_VERS = 2.0
CREATION_DATE  = 
ORIGINATOR     = 

OBJECT_NAME    = SERT 2
OBJECT_ID      = 1970-009A
CENTER_NAME    = EARTH
REF_FRAME      = TEME
TIME_SYSTEM    = UTC
MEAN_ELEMENT_THEORY = SGP/SGP4

EPOCH          = 2026-02-19T07:23:58.861824
MEAN_MOTION    = 13.58727776
ECCENTRICITY   = .00043116
INCLINATION    = 99.2736
RA_OF_ASC_NODE = 354.4101
ARG_OF_PERICENTER = 203.3337
MEAN_ANOMALY   = 310.5349

EPHEMERIS_TYPE = 0
CLASSIFICATION_TYPE = U
NORAD_CAT_ID   = 4327
ELEMENT_SET_NO = 999
REV_AT_EPOCH   = 77739
BSTAR          = .54820906E-4
MEAN_MOTION_DOT = -.1E-7
MEAN_MOTION_DDOT = 0

CCSDS_OMM_VERS = 2.0
CREATION_DATE  = 
ORIGINATOR     = 

OBJECT_NAME    = SL-3 R/B
OBJECT_ID      = 1971-028B
CENTER_NAME    = EARTH
REF_FRAME      = TEME
TIME_SYSTEM    = UTC
MEAN_ELEMENT_THEORY = SGP/SGP4

EPOCH          = 2026-02-19T06:00:32.980608
MEAN_MOTION    = 15.59539894
ECCENTRICITY   = .00161931
INCLINATION    = 81.2322
RA_OF_ASC_NODE = 74.7795
ARG_OF_PERICENTER = 359.3516
MEAN_ANOMALY   = 0.7713

EPHEMERIS_TYPE = 0
CLASSIFICATION_TYPE = U
NORAD_CAT_ID   = 5118
ELEMENT_SET_NO = 999
REV_AT_EPOCH   = 98579
BSTAR          = .39522834E-3
MEAN_MOTION_DOT = .31664E-3
MEAN_MOTION_DDOT = 0

CCSDS_OMM_VERS = 2.0
CREATION_DATE  = 
ORIGINATOR     = 

OBJECT_NAME    = ASTEX 1
OBJECT_ID      = 1971-089A
CENTER_NAME    = EARTH
REF_FRAME      = TEME
TIME_SYSTEM    = UTC
MEAN_ELEMENT_THEORY = SGP/SGP4

EPOCH          = 2026-02-19T06:26:16.082016
MEAN_MOTION    = 14.50747411
ECCENTRICITY   = .00170899
INCLINATION    = 92.7144
RA_OF_ASC_NODE = 145.8008
ARG_OF_PERICENTER = 140.8915
MEAN_ANOMALY   = 219.3530

EPHEMERIS_TYPE = 0
CLASSIFICATION_TYPE = U
NORAD_CAT_ID   = 5560
ELEMENT_SET_NO = 999
REV_AT_EPOCH   = 85963
BSTAR          = .11849144E-3
MEAN_MOTION_DOT = .466E-5
MEAN_MOTION_DDOT = 0

CCSDS_OMM_VERS = 2.0
CREATION_DATE  = 
ORIGINATOR     = 

OBJECT_NAME    = SL-8 R/B
OBJECT_ID      = 1971-119B
CENTER_NAME    = EARTH
REF_FRAME      = TEME
TIME_SYSTEM    = UTC
MEAN_ELEMENT_THEORY = SGP/SGP4

EPOCH          = 2026-02-19T05:09:55.395936
MEAN_MOTION    = 14.37262228
ECCENTRICITY   = .05522056
INCLINATION    = 73.8856
RA_OF_ASC_NODE = 210.2346
ARG_OF_PERICENTER = 180.6819
MEAN_ANOMALY   = 179.3656

EPHEMERIS_TYPE = 0
CLASSIFICATION_TYPE = U
NORAD_CAT_ID   = 5730
ELEMENT_SET_NO = 999
REV_AT_EPOCH   = 65283
BSTAR          = .80554669E-3
MEAN_MOTION_DOT = .15535E-3
MEAN_MOTION_DDOT = 0

CCSDS_OMM_VERS = 2.0
CREATION_DATE  = 
ORIGINATOR     = 

OBJECT_NAME    = OAO 3 (COPERNICUS)
OBJECT_ID      = 1972-065A
CENTER_NAME    = EARTH
REF_FRAME      = TEME
TIME_SYSTEM    = UTC
MEAN_ELEMENT_THEORY = SGP/SGP4

EPOCH          = 2026-02-19T06:46:46.860384
MEAN_MOTION    = 14.59980864
ECCENTRICITY   = .00064788
INCLINATION    = 35.0064
RA_OF_ASC_NODE = 42.1852
ARG_OF_PERICENTER = 4.6138
MEAN_ANOMALY   = 114.2668

EPHEMERIS_TYPE = 0
CLASSIFICATION_TYPE = U
NORAD_CAT_ID   = 6153
ELEMENT_SET_NO = 999
REV_AT_EPOCH   = 84350
BSTAR          = .80168092E-4
MEAN_MOTION_DOT = .369E-5
MEAN_MOTION_DDOT = 0

