ATLAS CENTAUR 2         
1 00694U 63047A   26050.02243571  .00001226  00000+0  13509-3 0  9997
2 00694  30.3576 299.9633 0548150 275.7842  78.0547 14.12011870128988
THOR AGENA D R/B        
1 00733U 64002A   26050.03215589  .00000197  00000+0  87717-4 0  9991
2 00733  99.1230  62.3531 0032189 314.0936  45.7598 14.34008096235629
SL-3 R/B                
1 00877U 64053B   26050.28299332  .00000351  00000+0  92090-4 0  9993
2 00877  65.0775  25.1985 0078920 298.0537  61.2597 14.61347926264100
SL-8 R/B                
1 02802U 67045B   26050.09794845  .00000352  00000+0  10491-3 0  9990
2 02802  74.0116  22.8071 0063451  33.6157 326.9000 14.45601968 86331
SL-8 R/B                
1 03230U 68040B   26050.27421371  .00002646  00000+0  19789-3 0  9990
2 03230  74.0336 351.3155 0024701 180.9104 179.2044 15.03114824 87240
OAO 2                   
1 03597U 68110A   26050.22535134  .00000236  00000+0  68784-4 0  9995
2 03597  34.9948   8.3119 0004996  45.4557 314.6541 14.47295747 16420
ISIS 1                  
1 03669U 69009A   26050.22127291  .00000191  00000+0  12005-3 0  9998
2 03669  88.4554 157.3208 1707837 126.4235 250.6748 11.30407391346444
SERT 2                  
1 04327U 70009A   26050.30832016 -.00000001  00000+0  54821-4 0  9993
2 04327  99.2736 354.4101 0004311 203.3337 310.5349 13.58727776777393
SL-3 R/B                
1 05118U 71028B   26050.25038172  .00031664  00000+0  39523-3 0  9998
2 05118  81.2322  74.7795 0016193 359.3516   0.7713 15.59539894985790
ASTEX 1                 
1 05560U 71089A   26050.26824169  .00000466  00000+0  11849-3 0  9993
2 05560  92.7144 145.8008 0017089 140.8915 219.3530 14.50747411859632
SL-8 R/B                
1 05730U 71119B   26050.21522449  .00015535  00000+0  80555-3 0  9990
2 05730  73.8856 210.2346 0552205 180.6819 179.3656 14.37262228652832
OAO 3 (COPERNICUS)      
1 06153U 72065A   26050.28248681  .00000369  00000+0  80168-4 0  9991
2 06153  35.0064  42.1852 0006478   4.6138 114.2668 14.59980864843506
